INTELSAT 902 (IS-902)   
1 26900U 01039A   26192.48377306 -.00000284  00000+0  00000+0 0  9991
2 26900   6.1764  71.4854 0004424  35.9335 306.0222  1.00271111 90934
INTELSAT 904 (IS-904)   
1 27380U 02007A   26192.41610435 -.00000226  00000+0  00000+0 0  9992
2 27380   6.9777  68.8900 0005400  23.3585 315.4057  1.00271577 52006
DIRECTV 5 (TEMPO 1)     
1 27426U 02023A   26192.61441074 -.00000057  00000+0  00000+0 0  9996
2 27426   4.9374  75.0044 0003015  41.5746 284.0173  1.00271016 88364
GALAXY 3C (G-3C)        
1 27445U 02030A   26192.83128931 -.00000152  00000+0  00000+0 0  9999
2 27445   3.7944  77.6555 0001493  37.9015  18.6118  1.00270776 46744
INTELSAT 906 (IS-906)   
1 27513U 02041A   26192.79150912  .00000011  00000+0  00000+0 0  9999
2 27513   5.8629  72.6183 0003935  20.5693 185.5837  1.00272456 87270
GALAXY 13 (HORIZONS-1)  
1 27954U 03044A   26192.74912274  .00000136  00000+0  00000+0 0  9992
2 27954   1.4809  83.5516 0002205  22.7246 303.0523  1.00269804 46816
DIRECTV 8               
1 28659U 05019A   26192.68374666  .00000006  00000+0  00000+0 0  9995
2 28659   0.0189  74.7854 0003023  50.6733 291.2238  1.00271011 77315
GALAXY 28 (G-28)        
1 28702U 05022A   26192.84465716 -.00000200  00000+0  00000+0 0  9990
2 28702   3.3602  78.6315 0002297  29.4253  98.6573  1.00271019 52220
GALAXY 16 (G-16)        
1 29236U 06023A   26192.83050931 -.00000123  00000+0  00000+0 0  9997
2 29236   0.0362 113.8531 0002438   6.5926   9.2682  1.00271248 73228
DIRECTV 9S              
1 29494U 06043A   26192.83007597 -.00000112  00000+0  00000+0 0  9993
2 29494   2.4816  80.6048 0004985  32.6674  14.0852  1.00270953 51633
GALAXY 17 (G-17)        
1 31307U 07016B   26192.83319598 -.00000205  00000+0  00000+0 0  9990
2 31307   3.0313  79.5891 0003548  33.0461  32.0248  1.00270656 70050
INTELSAT 11 (IS-11)     
1 32253U 07044B   26192.85349720 -.00000076  00000+0  00000+0 0  9990
2 32253   3.6269  78.3701 0004061 100.1995  75.7163  0.99051085 68690
HORIZONS-2              
1 32388U 07063B   26192.83544933 -.00000252  00000+0  00000+0 0  9997
2 32388   2.6629  80.3230 0003543  18.2184  58.1600  1.00270275 68060
DIRECTV 11              
1 32729U 08013A   26192.61657742 -.00000120  00000+0  00000+0 0  9995
2 32729   0.0131 264.0793 0000152 268.8149 239.4093  1.00272228 45831
GALAXY 18 (G-18)        
1 32951U 08024A   26192.75440944  .00000000  00000+0  00000+0 0  9999
2 32951   0.0279  47.9198 0002801  78.7436 311.5850  1.00270290 46097
GALAXY 19 (G-19)        
1 33376U 08045A   26192.83076931 -.00000135  00000+0  00000+0 0  9994
2 33376   0.0536 244.6907 0002327 235.6584  11.4535  1.00272153 65154
FM-5                    
1 35493U 09034A   26192.83302265 -.00000196  00000+0  00000+0 0  9994
2 35493   0.0375 275.4581 0000613  56.6820 171.3190  1.00271678 46891
INTELSAT 14 (IS-14)     
1 36097U 09064A   26192.84116935 -.00000269  00000+0  00000+0 0  9997
2 36097   0.0163  31.5081 0002222  84.4682  71.5991  1.00271124 60854
INTELSAT 15 (IS-15)     
1 36106U 09067A   26192.86698479 -.00000181  00000+0  00000+0 0  9994
2 36106   0.0142  58.6359 0002097  60.4168 207.9824  1.00271202 41477
DIRECTV 12              
1 36131U 09075A   26192.82964263 -.00000099  00000+0  00000+0 0  9992
2 36131   0.0204 206.9725 0000386  17.1044 261.5921  1.00271167 46806
INTELSAT 16 (IS-16)     
1 36397U 10006A   26192.83501598 -.00000240  00000+0  00000+0 0  9999
2 36397   0.0114  32.2852 0002275 103.4470  18.4078  1.00270944 59901
INTELSAT 17 (IS-17)     
1 37238U 10065B   26192.88938524  .00000002  00000+0  00000+0 0  9992
2 37238   0.0194  92.2512 0002647  24.0857 199.6252  1.00271973 53490
INTELSAT 28 (IS-28)     
1 37392U 11016A   26192.77252286 -.00000222  00000+0  00000+0 0  9997
2 37392   1.8670  82.3161 0003677  38.6451  55.1010  1.00271817 53534
INTELSAT 18 (IS-18)     
1 37834U 11056A   26192.74314272  .00000058  00000+0  00000+0 0  9999
2 37834   0.0213 296.1403 0001721 191.8031 249.2368  1.00272881 54059
INTELSAT 22 (IS-22)     
1 38098U 12011A   26192.89247269  .00000000  00000+0  00000+0 0  9998
2 38098   0.0398  69.1286 0001931  63.5731 190.4702  1.00271201  7432
INTELSAT 19 (IS-19)     
1 38356U 12030A   26192.74036936 -.00000052  00000+0  00000+0 0  9995
2 38356   0.0147  39.7279 0003072  84.6687 237.7768  1.00271070 50695
INTELSAT 20 (IS-20)     
1 38740U 12043A   26192.90183788 -.00000023  00000+0  00000+0 0  9990
2 38740   0.0122  62.5753 0003753 345.9835 274.4518  1.00279880 50991
